[{"OBJECT_NAME":"ONEWEB-0535","OBJECT_ID":"2022-138AL","EPOCH":"2026-03-09T18:13:23.077632","MEAN_MOTION":13.1972522,"ECCENTRICITY":0.00016802,"INCLINATION":87.9238,"RA_OF_ASC_NODE":324.7627,"ARG_OF_PERICENTER":67.3374,"MEAN_ANOMALY":292.7936,"EPHEMERIS_TYPE":0,"CLASSIFICATION_TYPE":"U","NORAD_CAT_ID":54147,"ELEMENT_SET_NO":999,"REV_AT_EPOCH":16372,"BSTAR":-0.00051141611,"MEAN_MOTION_DOT":-1.92e-6,"MEAN_MOTION_DDOT":0},{"OBJECT_NAME":"BREEZE-KM R\/B","OBJECT_ID":"2015-050D","EPOCH":"2026-03-09T23:36:31.814784","MEAN_MOTION":12.8044257,"ECCENTRICITY":0.02022634,"INCLINATION":82.4924,"RA_OF_ASC_NODE":327.6165,"ARG_OF_PERICENTER":334.7366,"MEAN_ANOMALY":24.3947,"EPHEMERIS_TYPE":0,"CLASSIFICATION_TYPE":"U","NORAD_CAT_ID":40923,"ELEMENT_SET_NO":999,"REV_AT_EPOCH":48887,"BSTAR":1.2330419e-5,"MEAN_MOTION_DOT":1.3e-7,"MEAN_MOTION_DDOT":0}]
